[{"OBJECT_NAME":"ESEO","OBJECT_ID":"2018-099AL","EPOCH":"2026-03-14T20:16:45.927264","MEAN_MOTION":15.03941091,"ECCENTRICITY":0.00103785,"INCLINATION":97.4111,"RA_OF_ASC_NODE":115.2342,"ARG_OF_PERICENTER":299.0892,"MEAN_ANOMALY":60.9294,"EPHEMERIS_TYPE":0,"CLASSIFICATION_TYPE":"U","NORAD_CAT_ID":43792,"ELEMENT_SET_NO":999,"REV_AT_EPOCH":39762,"BSTAR":0.00016644663,"MEAN_MOTION_DOT":2.24e-5,"MEAN_MOTION_DDOT":0},{"OBJECT_NAME":"THEA","OBJECT_ID":"2018-099AQ","EPOCH":"2026-03-14T15:26:59.401248","MEAN_MOTION":15.31662641,"ECCENTRICITY":0.0006683,"INCLINATION":97.4539,"RA_OF_ASC_NODE":142.6123,"ARG_OF_PERICENTER":255.0944,"MEAN_ANOMALY":104.9557,"EPHEMERIS_TYPE":0,"CLASSIFICATION_TYPE":"U","NORAD_CAT_ID":43796,"ELEMENT_SET_NO":999,"REV_AT_EPOCH":39820,"BSTAR":0.00083993984,"MEAN_MOTION_DOT":0.00025675,"MEAN_MOTION_DDOT":0},{"OBJECT_NAME":"ASTROCAST 0.1","OBJECT_ID":"2018-099AS","EPOCH":"2026-03-14T18:59:09.572928","MEAN_MOTION":15.43390008,"ECCENTRICITY":0.00059333,"INCLINATION":97.4457,"RA_OF_ASC_NODE":149.7622,"ARG_OF_PERICENTER":190.6617,"MEAN_ANOMALY":169.4505,"EPHEMERIS_TYPE":0,"CLASSIFICATION_TYPE":"U","NORAD_CAT_ID":43798,"ELEMENT_SET_NO":999,"REV_AT_EPOCH":39984,"BSTAR":0.00091733583,"MEAN_MOTION_DOT":0.00041057,"MEAN_MOTION_DDOT":0},{"OBJECT_NAME":"JY1SAT (JO-97)","OBJECT_ID":"2018-099AX","EPOCH":"2026-03-14T22:00:34.320960","MEAN_MOTION":15.30521716,"ECCENTRICITY":0.00050161,"INCLINATION":97.4249,"RA_OF_ASC_NODE":136.5939,"ARG_OF_PERICENTER":233.9702,"MEAN_ANOMALY":126.1074,"EPHEMERIS_TYPE":0,"CLASSIFICATION_TYPE":"U","NORAD_CAT_ID":43803,"ELEMENT_SET_NO":999,"REV_AT_EPOCH":39919,"BSTAR":0.00077317606,"MEAN_MOTION_DOT":0.00022791,"MEAN_MOTION_DDOT":0},{"OBJECT_NAME":"SUOMI-100","OBJECT_ID":"2018-099AY","EPOCH":"2026-03-14T15:59:03.272640","MEAN_MOTION":15.26153351,"ECCENTRICITY":0.00090993,"INCLINATION":97.4311,"RA_OF_ASC_NODE":134.5154,"ARG_OF_PERICENTER":249.4702,"MEAN_ANOMALY":110.5561,"EPHEMERIS_TYPE":0,"CLASSIFICATION_TYPE":"U","NORAD_CAT_ID":43804,"ELEMENT_SET_NO":999,"REV_AT_EPOCH":39899,"BSTAR":0.00072214432,"MEAN_MOTION_DOT":0.0001863,"MEAN_MOTION_DDOT":0},{"OBJECT_NAME":"AL-FARABI 2","OBJECT_ID":"2018-099AZ","EPOCH":"2026-03-14T18:45:35.083584","MEAN_MOTION":15.69938894,"ECCENTRICITY":0.00045703,"INCLINATION":97.4082,"RA_OF_ASC_NODE":149.9114,"ARG_OF_PERICENTER":204.6368,"MEAN_ANOMALY":155.4677,"EPHEMERIS_TYPE":0,"CLASSIFICATION_TYPE":"U","NORAD_CAT_ID":43805,"ELEMENT_SET_NO":999,"REV_AT_EPOCH":40015,"BSTAR":0.0016746728,"MEAN_MOTION_DOT":0.00205004,"MEAN_MOTION_DDOT":0},{"OBJECT_NAME":"CENTAURI-1","OBJECT_ID":"2018-099BD","EPOCH":"2026-03-14T22:36:47.556576","MEAN_MOTION":15.15326957,"ECCENTRICITY":0.00128325,"INCLINATION":97.4353,"RA_OF_ASC_NODE":127.6981,"ARG_OF_PERICENTER":297.9954,"MEAN_ANOMALY":61.9979,"EPHEMERIS_TYPE":0,"CLASSIFICATION_TYPE":"U","NORAD_CAT_ID":43809,"ELEMENT_SET_NO":999,"REV_AT_EPOCH":39822,"BSTAR":0.00042260153,"MEAN_MOTION_DOT":7.916e-5,"MEAN_MOTION_DDOT":0},{"OBJECT_NAME":"GLOBAL-2","OBJECT_ID":"2018-099BG","EPOCH":"2026-03-14T16:13:23.057184","MEAN_MOTION":15.08084266,"ECCENTRICITY":0.00075078,"INCLINATION":97.3684,"RA_OF_ASC_NODE":114.1007,"ARG_OF_PERICENTER":114.7343,"MEAN_ANOMALY":245.4668,"EPHEMERIS_TYPE":0,"CLASSIFICATION_TYPE":"U","NORAD_CAT_ID":43812,"ELEMENT_SET_NO":999,"REV_AT_EPOCH":39766,"BSTAR":0.00026542314,"MEAN_MOTION_DOT":4.035e-5,"MEAN_MOTION_DDOT":0},{"OBJECT_NAME":"SEAHAWK-1","OBJECT_ID":"2018-099BQ","EPOCH":"2026-03-14T20:35:15.181440","MEAN_MOTION":15.21143724,"ECCENTRICITY":0.00068873,"INCLINATION":97.4091,"RA_OF_ASC_NODE":127.8373,"ARG_OF_PERICENTER":280.3243,"MEAN_ANOMALY":79.7216,"EPHEMERIS_TYPE":0,"CLASSIFICATION_TYPE":"U","NORAD_CAT_ID":43820,"ELEMENT_SET_NO":999,"REV_AT_EPOCH":39818,"BSTAR":0.00056329773,"MEAN_MOTION_DOT":0.00012493,"MEAN_MOTION_DDOT":0},{"OBJECT_NAME":"SAUDISAT 5A","OBJECT_ID":"2018-102A","EPOCH":"2026-03-14T23:11:43.841760","MEAN_MOTION":15.27015173,"ECCENTRICITY":0.00115244,"INCLINATION":97.3183,"RA_OF_ASC_NODE":137.3823,"ARG_OF_PERICENTER":106.5699,"MEAN_ANOMALY":253.6807,"EPHEMERIS_TYPE":0,"CLASSIFICATION_TYPE":"U","NORAD_CAT_ID":43831,"ELEMENT_SET_NO":999,"REV_AT_EPOCH":40129,"BSTAR":0.00029760333,"MEAN_MOTION_DOT":7.833e-5,"MEAN_MOTION_DDOT":0},{"OBJECT_NAME":"SAUDISAT 5B","OBJECT_ID":"2018-102C","EPOCH":"2026-03-14T22:29:34.393632","MEAN_MOTION":15.2731999,"ECCENTRICITY":0.00122277,"INCLINATION":97.328,"RA_OF_ASC_NODE":140.2546,"ARG_OF_PERICENTER":108.7441,"MEAN_ANOMALY":251.5126,"EPHEMERIS_TYPE":0,"CLASSIFICATION_TYPE":"U","NORAD_CAT_ID":43833,"ELEMENT_SET_NO":999,"REV_AT_EPOCH":40140,"BSTAR":0.00029311095,"MEAN_MOTION_DOT":7.787e-5,"MEAN_MOTION_DDOT":0},{"OBJECT_NAME":"2018-102D","OBJECT_ID":"2018-102D","EPOCH":"2026-03-14T22:57:19.687968","MEAN_MOTION":15.56668771,"ECCENTRICITY":0.00048183,"INCLINATION":97.348,"RA_OF_ASC_NODE":159.6294,"ARG_OF_PERICENTER":60.9733,"MEAN_ANOMALY":299.2004,"EPHEMERIS_TYPE":0,"CLASSIFICATION_TYPE":"U","NORAD_CAT_ID":43834,"ELEMENT_SET_NO":999,"REV_AT_EPOCH":40254,"BSTAR":0.00076503153,"MEAN_MOTION_DOT":0.00054741,"MEAN_MOTION_DDOT":0},{"OBJECT_NAME":"ISAT","OBJECT_ID":"2018-111D","EPOCH":"2026-03-14T18:06:35.888256","MEAN_MOTION":15.51814748,"ECCENTRICITY":0.00020252,"INCLINATION":97.5899,"RA_OF_ASC_NODE":2.781,"ARG_OF_PERICENTER":292.5164,"MEAN_ANOMALY":67.5873,"EPHEMERIS_TYPE":0,"CLASSIFICATION_TYPE":"U","NORAD_CAT_ID":43879,"ELEMENT_SET_NO":999,"REV_AT_EPOCH":39646,"BSTAR":0.0013321179,"MEAN_MOTION_DOT":0.00080206,"MEAN_MOTION_DDOT":0},{"OBJECT_NAME":"UWE-4","OBJECT_ID":"2018-111E","EPOCH":"2026-03-14T17:49:30.461952","MEAN_MOTION":15.40366914,"ECCENTRICITY":0.00066144,"INCLINATION":97.5849,"RA_OF_ASC_NODE":358.2146,"ARG_OF_PERICENTER":318.6693,"MEAN_ANOMALY":41.4051,"EPHEMERIS_TYPE":0,"CLASSIFICATION_TYPE":"U","NORAD_CAT_ID":43880,"ELEMENT_SET_NO":999,"REV_AT_EPOCH":39621,"BSTAR":0.0010929649,"MEAN_MOTION_DOT":0.00044278,"MEAN_MOTION_DDOT":0},{"OBJECT_NAME":"D-STAR ONE (SPARROW)","OBJECT_ID":"2018-111F","EPOCH":"2026-03-14T18:12:57.563712","MEAN_MOTION":15.5569568,"ECCENTRICITY":0.00028808,"INCLINATION":97.6103,"RA_OF_ASC_NODE":7.2157,"ARG_OF_PERICENTER":33.0128,"MEAN_ANOMALY":327.1305,"EPHEMERIS_TYPE":0,"CLASSIFICATION_TYPE":"U","NORAD_CAT_ID":43881,"ELEMENT_SET_NO":999,"REV_AT_EPOCH":39661,"BSTAR":0.0014057797,"MEAN_MOTION_DOT":0.00097622,"MEAN_MOTION_DDOT":0},{"OBJECT_NAME":"JILIN-1 09","OBJECT_ID":"2019-005B","EPOCH":"2026-03-14T21:56:03.990048","MEAN_MOTION":15.19583712,"ECCENTRICITY":0.00036118,"INCLINATION":97.4704,"RA_OF_ASC_NODE":169.7707,"ARG_OF_PERICENTER":76.9985,"MEAN_ANOMALY":283.1653,"EPHEMERIS_TYPE":0,"CLASSIFICATION_TYPE":"U","NORAD_CAT_ID":43943,"ELEMENT_SET_NO":999,"REV_AT_EPOCH":39482,"BSTAR":0.00031890889,"MEAN_MOTION_DOT":6.72e-5,"MEAN_MOTION_DDOT":0}]
