ESEO                    
1 43792U 18099AL  26073.84497601  .00002240  00000+0  16645-3 0  9991
2 43792  97.4111 115.2342 0010378 299.0892  60.9294 15.03941091397626
THEA                    
1 43796U 18099AQ  26073.64374307  .00025675  00000+0  83994-3 0  9998
2 43796  97.4539 142.6123 0006683 255.0944 104.9557 15.31662641398207
ASTROCAST 0.1           
1 43798U 18099AS  26073.79108302  .00041057  00000+0  91734-3 0  9999
2 43798  97.4457 149.7622 0005933 190.6617 169.4505 15.43390008399846
JY1SAT (JO-97)          
1 43803U 18099AX  26073.91706390  .00022791  00000+0  77318-3 0  9997
2 43803  97.4249 136.5939 0005016 233.9702 126.1074 15.30521716399192
SUOMI-100               
1 43804U 18099AY  26073.66601010  .00018630  00000+0  72214-3 0  9990
2 43804  97.4311 134.5154 0009099 249.4702 110.5561 15.26153351398993
AL-FARABI 2             
1 43805U 18099AZ  26073.78165606  .00205004  00000+0  16747-2 0  9991
2 43805  97.4082 149.9114 0004570 204.6368 155.4677 15.69938894400153
CENTAURI-1              
1 43809U 18099BD  26073.94221709  .00007916  00000+0  42260-3 0  9992
2 43809  97.4353 127.6981 0012832 297.9954  61.9979 15.15326957398221
GLOBAL-2                
1 43812U 18099BG  26073.67596131  .00004035  00000+0  26542-3 0  9994
2 43812  97.3684 114.1007 0007507 114.7343 245.4668 15.08084266397669
SEAHAWK-1               
1 43820U 18099BQ  26073.85781460  .00012493  00000+0  56330-3 0  9999
2 43820  97.4091 127.8373 0006887 280.3243  79.7216 15.21143724398182
SAUDISAT 5A             
1 43831U 18102A   26073.96647965  .00007833  00000+0  29760-3 0  9998
2 43831  97.3183 137.3823 0011524 106.5699 253.6807 15.27015173401297
SAUDISAT 5B             
1 43833U 18102C   26073.93720363  .00007787  00000+0  29311-3 0  9991
2 43833  97.3280 140.2546 0012227 108.7441 251.5126 15.27319990401400
2018-102D               
1 43834U 18102D   26073.95647787  .00054741  00000+0  76503-3 0  9999
2 43834  97.3480 159.6294 0004818  60.9733 299.2004 15.56668771402543
ISAT                    
1 43879U 18111D   26073.75458204  .00080206  00000+0  13321-2 0  9993
2 43879  97.5899   2.7810 0002025 292.5164  67.5873 15.51814748396464
UWE-4                   
1 43880U 18111E   26073.74271368  .00044278  00000+0  10930-2 0  9990
2 43880  97.5849 358.2146 0006614 318.6693  41.4051 15.40366914396214
D-STAR ONE (SPARROW)    
1 43881U 18111F   26073.75899958  .00097622  00000+0  14058-2 0  9999
2 43881  97.6103   7.2157 0002880  33.0128 327.1305 15.55695680396615
JILIN-1 09              
1 43943U 19005B   26073.91393507  .00006720  00000+0  31891-3 0  9992
2 43943  97.4704 169.7707 0003611  76.9985 283.1653 15.19583712394824
